TDRS 11                 
1 39070U 13004A   26064.72818878  .00000075  00000+0  00000+0 0  9994
2 39070   3.3693  29.3775 0003985 351.0214 230.8817  1.00277035 45653
TDRS 12                 
1 39504U 14004A   26064.64735764 -.00000275  00000+0  00000+0 0  9993
2 39504   3.8771  17.2631 0003897 267.9073  70.3501  1.00269642 43238
GPM-CORE                
1 39574U 14009C   26064.76085865  .00010807  00000+0  23521-3 0  9996
2 39574  64.9730 294.6481 0012417 264.9480  95.0243 15.44639643681835
MMS 1                   
1 40482U 15011A   26064.75001156 -.00001901  00000+0  00000+0 0  9999
2 40482  70.7606 350.2105 8415490 165.2379 187.9716  0.28334504  1331
MMS 2                   
1 40483U 15011B   26064.75001156 -.00001901  00000+0  00000+0 0  9990
2 40483  70.7631 350.2122 8416419 165.2445 187.9552  0.28334931  1337
MMS 3                   
1 40484U 15011C   26064.75001156 -.00001901  00000+0  00000+0 0  9991
2 40484  70.7654 350.2169 8415704 165.2387 187.9638  0.28334900  1336
MMS 4                   
1 40485U 15011D   26064.75001156 -.00001901  00000+0  00000+0 0  9992
2 40485  70.7635 350.2120 8415205 165.2460 187.9494  0.28334897  1336
TDRS 13                 
1 42915U 17047A   26064.64858047 -.00000105  00000+0  00000+0 0  9995
2 42915   3.4298   0.0958 0010367  98.9237 286.3732  1.00272295 31313
NOAA 20 (JPSS-1)        
1 43013U 17073A   26064.81073798  .00000131  00000+0  83084-4 0  9991
2 43013  98.7689   5.2366 0001033 142.6447 217.4801 14.19534961429806
